[
    {
        "Altitude(m)": 617710.7043828219,
        "Argument of Periapsis(deg)": 0.0,
        "Eccentricity": 0.0,
        "Inclination(deg)": 60.0,
        "Latitude(deg)": -41.10283535691848,
        "Longitude(deg)": -95.03335799803737,
        "Mean Anomaly(deg)": 310.9091000000001,
        "RAAN(deg)": 35.0,
        "Satellite Name": "Test1 173",
        "Satellite Number": 173,
        "Semi-Major Axis(m)": 6980739.136638005,
        "Time(s)": 0
    },
    {
        "Altitude(m)": 617518.0026749844,
        "Argument of Periapsis(deg)": 0.00010418945913296404,
        "Eccentricity": 0.0,
        "Inclination(deg)": 60.0,
        "Latitude(deg)": -40.63704220212169,
        "Longitude(deg)": -94.53656329193781,
        "Mean Anomaly(deg)": 311.5292061454619,
        "RAAN(deg)": 34.99957995086025,
        "Satellite Name": "Test1 173",
        "Satellite Number": 173,
        "Semi-Major Axis(m)": 6980739.136638005,
        "Time(s)": 10
    }
]